[
  {
    "OBJECT_NAME": "FENGYUN 1C DEB",
    "OBJECT_ID": "1999-025XU",
    "EPOCH": "2026-06-12T03:58:25.376736",
    "MEAN_MOTION": 14.5220274,
    "ECCENTRICITY": 0.02421365,
    "INCLINATION": 98.7436,
    "RA_OF_ASC_NODE": 27.6978,
    "ARG_OF_PERICENTER": 77.8722,
    "MEAN_ANOMALY": 44.1329,
    "EPHEMERIS_TYPE": 0,
    "CLASSIFICATION_TYPE": "U",
    "NORAD_CAT_ID": 30259,
    "ELEMENT_SET_NO": 999,
    "REV_AT_EPOCH": 2106,
    "BSTAR": 0.00033307341,
    "MEAN_MOTION_DOT": 0.00001925,
    "MEAN_MOTION_DDOT": 0
  }
]
