FENGYUN 1C DEB          
1 30259U 99025XU  26163.16557149  .00001925  00000+0  33307-3 0  9995
2 30259  98.7436  27.6978 0242136  77.8722  44.1329 14.52202740 21067
